{
  "type": "FeatureCollection",
  "features": [
    {
      "type": "Feature",
      "properties": {
        "norad_id": 64202,
        "name": "GPS BIII-8  (PRN 21)",
        "group": "gnss",
        "lat": -13.46099205517665,
        "lon": -132.0982386599579,
        "alt_km": 20190.807216317873,
        "timestamp": "2025-12-21T20:41:08.208626+00:00",
        "meta_object_name": "GPS BIII-8  (PRN 21)",
        "meta_object_id": "2025-116A",
        "meta_epoch": "2025-12-21T05:27:12.746304",
        "meta_mean_motion": 2.00557871,
        "meta_eccentricity": 0.0005801,
        "meta_inclination": 55.1115,
        "meta_ra_of_asc_node": 38.2986,
        "meta_arg_of_pericenter": 309.9231,
        "meta_mean_anomaly": 148.3902,
        "meta_ephemeris_type": 0,
        "meta_classification_type": "U",
        "meta_norad_cat_id": 64202,
        "meta_element_set_no": 999,
        "meta_rev_at_epoch": 430,
        "meta_bstar": 0,
        "meta_mean_motion_dot": -5.6e-07,
        "meta_mean_motion_ddot": 0,
        "tle_line1": "1 64202U 25116A   25355.22723086 -.00000056  00000+0  00000+0 0  9999",
        "tle_line2": "2 64202  55.1115  38.2986 0005801 309.9231 148.3902  2.00557871  4300"
      },
      "geometry": {
        "type": "Point",
        "coordinates": [
          -132.0982386599579,
          -13.46099205517665
        ]
      }
    },
    {
      "type": "Feature",
      "properties": {
        "norad_id": 65590,
        "name": "COSMOS 2596 (708K)",
        "group": "gnss",
        "lat": -14.206065442160785,
        "lon": 148.001708507864,
        "alt_km": 19145.443052997987,
        "timestamp": "2025-12-21T20:41:08.208636+00:00",
        "meta_object_name": "COSMOS 2596 (708K)",
        "meta_object_id": "2025-206B",
        "meta_epoch": "2025-12-21T08:11:49.978752",
        "meta_mean_motion": 2.13100442,
        "meta_eccentricity": 0.00140796,
        "meta_inclination": 64.7397,
        "meta_ra_of_asc_node": 321.1762,
        "meta_arg_of_pericenter": 307.1691,
        "meta_mean_anomaly": 209.4715,
        "meta_ephemeris_type": 0,
        "meta_classification_type": "U",
        "meta_norad_cat_id": 65590,
        "meta_element_set_no": 999,
        "meta_rev_at_epoch": 212,
        "meta_bstar": 0,
        "meta_mean_motion_dot": -4.8e-07,
        "meta_mean_motion_ddot": 0,
        "tle_line1": "1 65590U 25206B   25355.34155068 -.00000048  00000+0  00000+0 0  9993",
        "tle_line2": "2 65590  64.7397 321.1762 0014079 307.1691 209.4715  2.13100442  2123"
      },
      "geometry": {
        "type": "Point",
        "coordinates": [
          148.001708507864,
          -14.206065442160785
        ]
      }
    },
    {
      "type": "Feature",
      "properties": {
        "norad_id": 67160,
        "name": "GALILEO A",
        "group": "gnss",
        "lat": 21.70522732116561,
        "lon": -89.50337177701037,
        "alt_km": 22939.040196755974,
        "timestamp": "2025-12-21T20:41:08.208646+00:00",
        "meta_object_name": "GALILEO A",
        "meta_object_id": "2025-302A",
        "meta_epoch": "2025-12-18T03:30:19.486368",
        "meta_mean_motion": 1.72906186,
        "meta_eccentricity": 0.00084238,
        "meta_inclination": 54.2406,
        "meta_ra_of_asc_node": 107.2544,
        "meta_arg_of_pericenter": 237.6458,
        "meta_mean_anomaly": 122.2317,
        "meta_ephemeris_type": 0,
        "meta_classification_type": "U",
        "meta_norad_cat_id": 67160,
        "meta_element_set_no": 999,
        "meta_rev_at_epoch": 2,
        "meta_bstar": 0,
        "meta_mean_motion_dot": -7e-08,
        "meta_mean_motion_ddot": 0,
        "tle_line1": "1 67160U 25302A   25352.14605887 -.00000007  00000+0  00000+0 0  9994",
        "tle_line2": "2 67160  54.2406 107.2544 0008423 237.6458 122.2317  1.72906186    28"
      },
      "geometry": {
        "type": "Point",
        "coordinates": [
          -89.50337177701037,
          21.70522732116561
        ]
      }
    },
    {
      "type": "Feature",
      "properties": {
        "norad_id": 67161,
        "name": "GALILEO B",
        "group": "gnss",
        "lat": 20.820480523096396,
        "lon": -88.77707593109243,
        "alt_km": 22936.537592613593,
        "timestamp": "2025-12-21T20:41:08.208657+00:00",
        "meta_object_name": "GALILEO B",
        "meta_object_id": "2025-302B",
        "meta_epoch": "2025-12-19T07:14:53.290752",
        "meta_mean_motion": 1.72972192,
        "meta_eccentricity": 0.00045866,
        "meta_inclination": 54.2272,
        "meta_ra_of_asc_node": 107.1916,
        "meta_arg_of_pericenter": 255.0301,
        "meta_mean_anomaly": 104.8802,
        "meta_ephemeris_type": 0,
        "meta_classification_type": "U",
        "meta_norad_cat_id": 67161,
        "meta_element_set_no": 999,
        "meta_rev_at_epoch": 5,
        "meta_bstar": 0,
        "meta_mean_motion_dot": -5e-08,
        "meta_mean_motion_ddot": 0,
        "tle_line1": "1 67161U 25302B   25353.30200568 -.00000005  00000+0  00000+0 0  9999",
        "tle_line2": "2 67161  54.2272 107.1916 0004586 255.0301 104.8802  1.72972192    57"
      },
      "geometry": {
        "type": "Point",
        "coordinates": [
          -88.77707593109243,
          20.820480523096396
        ]
      }
    }
  ]
}